[{"OBJECT_NAME":"YAOGAN-39 04C","OBJECT_ID":"2023-163E","EPOCH":"2026-03-09T23:09:59.754816","MEAN_MOTION":15.16776938,"ECCENTRICITY":0.00075996,"INCLINATION":34.9897,"RA_OF_ASC_NODE":267.2485,"ARG_OF_PERICENTER":234.7025,"MEAN_ANOMALY":125.2977,"EPHEMERIS_TYPE":0,"CLASSIFICATION_TYPE":"U","NORAD_CAT_ID":58145,"ELEMENT_SET_NO":999,"REV_AT_EPOCH":13224,"BSTAR":0.00030771871,"MEAN_MOTION_DOT":6.157e-5,"MEAN_MOTION_DDOT":0},{"OBJECT_NAME":"FLOCK 4H-33","OBJECT_ID":"2025-276BY","EPOCH":"2026-03-09T18:09:06.535296","MEAN_MOTION":15.19689011,"ECCENTRICITY":9.559e-5,"INCLINATION":97.4288,"RA_OF_ASC_NODE":144.1705,"ARG_OF_PERICENTER":288.4074,"MEAN_ANOMALY":71.7057,"EPHEMERIS_TYPE":0,"CLASSIFICATION_TYPE":"U","NORAD_CAT_ID":66736,"ELEMENT_SET_NO":999,"REV_AT_EPOCH":1533,"BSTAR":0.00040674179,"MEAN_MOTION_DOT":8.618e-5,"MEAN_MOTION_DDOT":0}]
